[{"OBJECT_NAME":"STARLINK-3574","OBJECT_ID":"2022-022Y","EPOCH":"2026-03-09T05:07:07.872384","MEAN_MOTION":15.0884531,"ECCENTRICITY":0.00015533,"INCLINATION":53.2193,"RA_OF_ASC_NODE":11.2598,"ARG_OF_PERICENTER":100.2689,"MEAN_ANOMALY":259.8478,"EPHEMERIS_TYPE":0,"CLASSIFICATION_TYPE":"U","NORAD_CAT_ID":51874,"ELEMENT_SET_NO":999,"REV_AT_EPOCH":22303,"BSTAR":-8.6972372e-5,"MEAN_MOTION_DOT":-1.672e-5,"MEAN_MOTION_DDOT":0},{"OBJECT_NAME":"MUSAT-2","OBJECT_ID":"2024-043B","EPOCH":"2026-03-09T22:04:01.255008","MEAN_MOTION":15.07177436,"ECCENTRICITY":0.0006495,"INCLINATION":97.8438,"RA_OF_ASC_NODE":205.4399,"ARG_OF_PERICENTER":314.3478,"MEAN_ANOMALY":45.7216,"EPHEMERIS_TYPE":0,"CLASSIFICATION_TYPE":"U","NORAD_CAT_ID":59099,"ELEMENT_SET_NO":999,"REV_AT_EPOCH":11013,"BSTAR":0.00067214198,"MEAN_MOTION_DOT":0.00010059,"MEAN_MOTION_DDOT":0}]
